CCSDS_OMM_VERS = 2.0
CREATION_DATE  = 
ORIGINATOR     = 

OBJECT_NAME    = HULIANWANG DIGUI-126
OBJECT_ID      = 2025-295H
CENTER_NAME    = EARTH
REF_FRAME      = TEME
TIME_SYSTEM    = UTC
MEAN_ELEMENT_THEORY = SGP/SGP4

EPOCH          = 2026-01-05T09:33:36.648576
MEAN_MOTION    = 14.24660637
ECCENTRICITY   = .0011238
INCLINATION    = 50.0002
RA_OF_ASC_NODE = 272.3626
ARG_OF_PERICENTER = 330.7414
MEAN_ANOMALY   = 29.2868

EPHEMERIS_TYPE = 0
CLASSIFICATION_TYPE = U
NORAD_CAT_ID   = 67066
ELEMENT_SET_NO = 999
REV_AT_EPOCH   = 349
BSTAR          = .22444E-3
MEAN_MOTION_DOT = .366E-5
MEAN_MOTION_DDOT = 0

CCSDS_OMM_VERS = 2.0
CREATION_DATE  = 
ORIGINATOR     = 

OBJECT_NAME    = HULIANWANG DIGUI-127
OBJECT_ID      = 2025-295J
CENTER_NAME    = EARTH
REF_FRAME      = TEME
TIME_SYSTEM    = UTC
MEAN_ELEMENT_THEORY = SGP/SGP4

EPOCH          = 2026-01-05T09:32:06.091008
MEAN_MOTION    = 14.24677581
ECCENTRICITY   = .0010653
INCLINATION    = 50.0041
RA_OF_ASC_NODE = 272.3674
ARG_OF_PERICENTER = 337.3946
MEAN_ANOMALY   = 22.6497

EPHEMERIS_TYPE = 0
CLASSIFICATION_TYPE = U
NORAD_CAT_ID   = 67067
ELEMENT_SET_NO = 999
REV_AT_EPOCH   = 349
BSTAR          = -.42298E-3
MEAN_MOTION_DOT = -.1151E-4
MEAN_MOTION_DDOT = 0

CCSDS_OMM_VERS = 2.0
CREATION_DATE  = 
ORIGINATOR     = 

OBJECT_NAME    = CZ-12 R/B
OBJECT_ID      = 2025-295K
CENTER_NAME    = EARTH
REF_FRAME      = TEME
TIME_SYSTEM    = UTC
MEAN_ELEMENT_THEORY = SGP/SGP4

EPOCH          = 2026-01-05T03:12:07.310880
MEAN_MOTION    = 14.41135546
ECCENTRICITY   = .00568917
INCLINATION    = 49.9934
RA_OF_ASC_NODE = 270.8969
ARG_OF_PERICENTER = 219.7576
MEAN_ANOMALY   = 139.9169

EPHEMERIS_TYPE = 0
CLASSIFICATION_TYPE = U
NORAD_CAT_ID   = 67068
ELEMENT_SET_NO = 999
REV_AT_EPOCH   = 348
BSTAR          = .69311843E-4
MEAN_MOTION_DOT = .61E-6
MEAN_MOTION_DDOT = 0

CCSDS_OMM_VERS = 2.0
CREATION_DATE  = 
ORIGINATOR     = 

OBJECT_NAME    = XIWANG-5 02
OBJECT_ID      = 2025-296A
CENTER_NAME    = EARTH
REF_FRAME      = TEME
TIME_SYSTEM    = UTC
MEAN_ELEMENT_THEORY = SGP/SGP4

EPOCH          = 2026-01-05T08:56:18.538656
MEAN_MOTION    = 15.13118384
ECCENTRICITY   = .0002246
INCLINATION    = 41.3533
RA_OF_ASC_NODE = 327.2086
ARG_OF_PERICENTER = 329.8518
MEAN_ANOMALY   = 30.2172

EPHEMERIS_TYPE = 0
CLASSIFICATION_TYPE = U
NORAD_CAT_ID   = 67069
ELEMENT_SET_NO = 999
REV_AT_EPOCH   = 354
BSTAR          = .89966E-3
MEAN_MOTION_DOT = .16076E-3
MEAN_MOTION_DDOT = 0

CCSDS_OMM_VERS = 2.0
CREATION_DATE  = 
ORIGINATOR     = 

OBJECT_NAME    = DEAR-5
OBJECT_ID      = 2025-296B
CENTER_NAME    = EARTH
REF_FRAME      = TEME
TIME_SYSTEM    = UTC
MEAN_ELEMENT_THEORY = SGP/SGP4

EPOCH          = 2026-01-05T08:06:39.673152
MEAN_MOTION    = 15.17076784
ECCENTRICITY   = .0020032
INCLINATION    = 41.3576
RA_OF_ASC_NODE = 326.9571
ARG_OF_PERICENTER = 185.9430
MEAN_ANOMALY   = 174.1156

EPHEMERIS_TYPE = 0
CLASSIFICATION_TYPE = U
NORAD_CAT_ID   = 67070
ELEMENT_SET_NO = 999
REV_AT_EPOCH   = 353
BSTAR          = .30632E-3
MEAN_MOTION_DOT = .6013E-4
MEAN_MOTION_DDOT = 0

CCSDS_OMM_VERS = 2.0
CREATION_DATE  = 
ORIGINATOR     = 

OBJECT_NAME    = RAISE-4
OBJECT_ID      = 2025-297B
CENTER_NAME    = EARTH
REF_FRAME      = TEME
TIME_SYSTEM    = UTC
MEAN_ELEMENT_THEORY = SGP/SGP4

EPOCH          = 2026-01-05T03:13:08.539104
MEAN_MOTION    = 15.07402279
ECCENTRICITY   = .00114822
INCLINATION    = 97.4870
RA_OF_ASC_NODE = 157.0558
ARG_OF_PERICENTER = 232.2811
MEAN_ANOMALY   = 127.7377

EPHEMERIS_TYPE = 0
CLASSIFICATION_TYPE = U
NORAD_CAT_ID   = 67073
ELEMENT_SET_NO = 999
REV_AT_EPOCH   = 331
BSTAR          = .38322382E-3
MEAN_MOTION_DOT = .5749E-4
MEAN_MOTION_DDOT = 0

CCSDS_OMM_VERS = 2.0
CREATION_DATE  = 
ORIGINATOR     = 

OBJECT_NAME    = ELECTRON KICK STAGE R/B
OBJECT_ID      = 2025-297C
CENTER_NAME    = EARTH
REF_FRAME      = TEME
TIME_SYSTEM    = UTC
MEAN_ELEMENT_THEORY = SGP/SGP4

EPOCH          = 2026-01-05T11:21:22.816800
MEAN_MOTION    = 15.70448001
ECCENTRICITY   = .0156738
INCLINATION    = 97.4783
RA_OF_ASC_NODE = 159.2316
ARG_OF_PERICENTER = 183.0417
MEAN_ANOMALY   = 176.9910

EPHEMERIS_TYPE = 0
CLASSIFICATION_TYPE = U
NORAD_CAT_ID   = 67074
ELEMENT_SET_NO = 999
REV_AT_EPOCH   = 348
BSTAR          = .20614E-2
MEAN_MOTION_DOT = .527184E-2
MEAN_MOTION_DDOT = .87224E-4

CCSDS_OMM_VERS = 2.0
CREATION_DATE  = 
ORIGINATOR     = 

OBJECT_NAME    = STARLINK-36230
OBJECT_ID      = 2025-298A
CENTER_NAME    = EARTH
REF_FRAME      = TEME
TIME_SYSTEM    = UTC
MEAN_ELEMENT_THEORY = SGP/SGP4

EPOCH          = 2026-01-05T11:15:20.334240
MEAN_MOTION    = 15.52571495
ECCENTRICITY   = .0003823
INCLINATION    = 69.9995
RA_OF_ASC_NODE = 183.2377
ARG_OF_PERICENTER = 277.0757
MEAN_ANOMALY   = 82.9995

EPHEMERIS_TYPE = 0
CLASSIFICATION_TYPE = U
NORAD_CAT_ID   = 67075
ELEMENT_SET_NO = 999
REV_AT_EPOCH   = 351
BSTAR          = .15684E-2
MEAN_MOTION_DOT = .97705E-3
MEAN_MOTION_DDOT = 0

CCSDS_OMM_VERS = 2.0
CREATION_DATE  = 
ORIGINATOR     = 

OBJECT_NAME    = STARLINK-36240
OBJECT_ID      = 2025-298B
CENTER_NAME    = EARTH
REF_FRAME      = TEME
TIME_SYSTEM    = UTC
MEAN_ELEMENT_THEORY = SGP/SGP4

EPOCH          = 2026-01-05T00:00:00.999648
MEAN_MOTION    = 15.52561389
ECCENTRICITY   = .000338
INCLINATION    = 69.9992
RA_OF_ASC_NODE = 184.5191
ARG_OF_PERICENTER = 273.5072
MEAN_ANOMALY   = 348.1226

EPHEMERIS_TYPE = 0
CLASSIFICATION_TYPE = U
NORAD_CAT_ID   = 67076
ELEMENT_SET_NO = 999
REV_AT_EPOCH   = 471
BSTAR          = -.14109667E-2
MEAN_MOTION_DOT = -.86171E-3
MEAN_MOTION_DDOT = 0

CCSDS_OMM_VERS = 2.0
CREATION_DATE  = 
ORIGINATOR     = 

OBJECT_NAME    = STARLINK-36243
OBJECT_ID      = 2025-298C
CENTER_NAME    = EARTH
REF_FRAME      = TEME
TIME_SYSTEM    = UTC
MEAN_ELEMENT_THEORY = SGP/SGP4

EPOCH          = 2026-01-05T11:14:21.104448
MEAN_MOTION    = 15.52568195
ECCENTRICITY   = .0003556
INCLINATION    = 69.9994
RA_OF_ASC_NODE = 183.2343
ARG_OF_PERICENTER = 279.5165
MEAN_ANOMALY   = 80.5619

EPHEMERIS_TYPE = 0
CLASSIFICATION_TYPE = U
NORAD_CAT_ID   = 67077
ELEMENT_SET_NO = 999
REV_AT_EPOCH   = 351
BSTAR          = .16467E-2
MEAN_MOTION_DOT = .102639E-2
MEAN_MOTION_DDOT = 0

CCSDS_OMM_VERS = 2.0
CREATION_DATE  = 
ORIGINATOR     = 

OBJECT_NAME    = STARLINK-36236
OBJECT_ID      = 2025-298D
CENTER_NAME    = EARTH
REF_FRAME      = TEME
TIME_SYSTEM    = UTC
MEAN_ELEMENT_THEORY = SGP/SGP4

EPOCH          = 2026-01-05T11:13:51.960000
MEAN_MOTION    = 15.52559650
ECCENTRICITY   = .0003595
INCLINATION    = 69.9997
RA_OF_ASC_NODE = 183.2330
ARG_OF_PERICENTER = 275.7264
MEAN_ANOMALY   = 84.3513

EPHEMERIS_TYPE = 0
CLASSIFICATION_TYPE = U
NORAD_CAT_ID   = 67078
ELEMENT_SET_NO = 999
REV_AT_EPOCH   = 351
BSTAR          = .13688E-2
MEAN_MOTION_DOT = .85076E-3
MEAN_MOTION_DDOT = 0

CCSDS_OMM_VERS = 2.0
CREATION_DATE  = 
ORIGINATOR     = 

OBJECT_NAME    = STARLINK-36159
OBJECT_ID      = 2025-298E
CENTER_NAME    = EARTH
REF_FRAME      = TEME
TIME_SYSTEM    = UTC
MEAN_ELEMENT_THEORY = SGP/SGP4

EPOCH          = 2026-01-05T12:00:01.999296
MEAN_MOTION    = 15.42674518
ECCENTRICITY   = .0003301
INCLINATION    = 69.9998
RA_OF_ASC_NODE = 183.3589
ARG_OF_PERICENTER = 268.5379
MEAN_ANOMALY   = 83.2244

EPHEMERIS_TYPE = 0
CLASSIFICATION_TYPE = U
NORAD_CAT_ID   = 67079
ELEMENT_SET_NO = 999
REV_AT_EPOCH   = 479
BSTAR          = .16015E-2
MEAN_MOTION_DOT = .7054E-3
MEAN_MOTION_DDOT = 0

CCSDS_OMM_VERS = 2.0
CREATION_DATE  = 
ORIGINATOR     = 

OBJECT_NAME    = STARLINK-36158
OBJECT_ID      = 2025-298F
CENTER_NAME    = EARTH
REF_FRAME      = TEME
TIME_SYSTEM    = UTC
MEAN_ELEMENT_THEORY = SGP/SGP4

EPOCH          = 2026-01-05T12:00:01.999296
MEAN_MOTION    = 15.49509822
ECCENTRICITY   = .0003159
INCLINATION    = 69.9997
RA_OF_ASC_NODE = 183.1427
ARG_OF_PERICENTER = 273.0564
MEAN_ANOMALY   = 266.4009

EPHEMERIS_TYPE = 0
CLASSIFICATION_TYPE = U
NORAD_CAT_ID   = 67080
ELEMENT_SET_NO = 999
REV_AT_EPOCH   = 473
BSTAR          = -.41636E-1
MEAN_MOTION_DOT = -.2051492E-1
MEAN_MOTION_DDOT = 0

CCSDS_OMM_VERS = 2.0
CREATION_DATE  = 
ORIGINATOR     = 

OBJECT_NAME    = STARLINK-35864
OBJECT_ID      = 2025-298G
CENTER_NAME    = EARTH
REF_FRAME      = TEME
TIME_SYSTEM    = UTC
MEAN_ELEMENT_THEORY = SGP/SGP4

EPOCH          = 2026-01-05T12:00:01.999296
MEAN_MOTION    = 15.46326375
ECCENTRICITY   = .0003277
INCLINATION    = 70.0005
RA_OF_ASC_NODE = 183.1559
ARG_OF_PERICENTER = 277.2657
MEAN_ANOMALY   = 252.3646

EPHEMERIS_TYPE = 0
CLASSIFICATION_TYPE = U
NORAD_CAT_ID   = 67081
ELEMENT_SET_NO = 999
REV_AT_EPOCH   = 479
BSTAR          = -.46862E-1
MEAN_MOTION_DOT = -.2063792E-1
MEAN_MOTION_DDOT = 0

CCSDS_OMM_VERS = 2.0
CREATION_DATE  = 
ORIGINATOR     = 

OBJECT_NAME    = STARLINK-36035
OBJECT_ID      = 2025-298H
CENTER_NAME    = EARTH
REF_FRAME      = TEME
TIME_SYSTEM    = UTC
MEAN_ELEMENT_THEORY = SGP/SGP4

EPOCH          = 2026-01-05T12:00:01.999296
MEAN_MOTION    = 15.42637362
ECCENTRICITY   = .000277
INCLINATION    = 70.0000
RA_OF_ASC_NODE = 183.1754
ARG_OF_PERICENTER = 268.8810
MEAN_ANOMALY   = 243.9125

EPHEMERIS_TYPE = 0
CLASSIFICATION_TYPE = U
NORAD_CAT_ID   = 67082
ELEMENT_SET_NO = 999
REV_AT_EPOCH   = 479
BSTAR          = .18134E-2
MEAN_MOTION_DOT = .79888E-3
MEAN_MOTION_DDOT = 0

